[{"OBJECT_NAME":"STARLINK-4470","OBJECT_ID":"2022-105H","EPOCH":"2026-03-18T20:26:34.293120","MEAN_MOTION":15.05659785,"ECCENTRICITY":0.0002928,"INCLINATION":97.6029,"RA_OF_ASC_NODE":320.1976,"ARG_OF_PERICENTER":85.5331,"MEAN_ANOMALY":274.623,"EPHEMERIS_TYPE":0,"CLASSIFICATION_TYPE":"U","NORAD_CAT_ID":53655,"ELEMENT_SET_NO":999,"REV_AT_EPOCH":19467,"BSTAR":9.7614e-5,"MEAN_MOTION_DOT":1.348e-5,"MEAN_MOTION_DDOT":0},{"OBJECT_NAME":"STARLINK-4466","OBJECT_ID":"2022-105J","EPOCH":"2026-03-18T11:46:59.836512","MEAN_MOTION":15.01493189,"ECCENTRICITY":0.00012644,"INCLINATION":97.6123,"RA_OF_ASC_NODE":318.8205,"ARG_OF_PERICENTER":179.6438,"MEAN_ANOMALY":180.4787,"EPHEMERIS_TYPE":0,"CLASSIFICATION_TYPE":"U","NORAD_CAT_ID":53656,"ELEMENT_SET_NO":999,"REV_AT_EPOCH":19455,"BSTAR":0.0023755654,"MEAN_MOTION_DOT":0.00030775,"MEAN_MOTION_DDOT":0},{"OBJECT_NAME":"STARLINK-4469","OBJECT_ID":"2022-105K","EPOCH":"2026-03-18T20:00:01.999008","MEAN_MOTION":15.97625483,"ECCENTRICITY":0.0002681,"INCLINATION":97.6268,"RA_OF_ASC_NODE":344.661,"ARG_OF_PERICENTER":131.4382,"MEAN_ANOMALY":181.1378,"EPHEMERIS_TYPE":0,"CLASSIFICATION_TYPE":"U","NORAD_CAT_ID":53657,"ELEMENT_SET_NO":999,"REV_AT_EPOCH":604,"BSTAR":0.0012975,"MEAN_MOTION_DOT":0.00574516,"MEAN_MOTION_DDOT":0.00014322},{"OBJECT_NAME":"STARLINK-4452","OBJECT_ID":"2022-105L","EPOCH":"2026-03-18T14:27:41.838048","MEAN_MOTION":15.05651718,"ECCENTRICITY":0.0002869,"INCLINATION":97.6036,"RA_OF_ASC_NODE":320.0496,"ARG_OF_PERICENTER":84.7334,"MEAN_ANOMALY":275.422,"EPHEMERIS_TYPE":0,"CLASSIFICATION_TYPE":"U","NORAD_CAT_ID":53658,"ELEMENT_SET_NO":999,"REV_AT_EPOCH":19464,"BSTAR":5.9027e-5,"MEAN_MOTION_DOT":7.91e-6,"MEAN_MOTION_DDOT":0},{"OBJECT_NAME":"STARLINK-4473","OBJECT_ID":"2022-105N","EPOCH":"2026-03-18T20:00:01.999008","MEAN_MOTION":15.04855169,"ECCENTRICITY":0.0002158,"INCLINATION":97.6038,"RA_OF_ASC_NODE":319.171,"ARG_OF_PERICENTER":87.2742,"MEAN_ANOMALY":13.741,"EPHEMERIS_TYPE":0,"CLASSIFICATION_TYPE":"U","NORAD_CAT_ID":53660,"ELEMENT_SET_NO":999,"REV_AT_EPOCH":575,"BSTAR":-0.0032829,"MEAN_MOTION_DOT":-0.00046136,"MEAN_MOTION_DDOT":0},{"OBJECT_NAME":"STARLINK-4472","OBJECT_ID":"2022-105P","EPOCH":"2026-03-18T10:09:04.302144","MEAN_MOTION":15.01262762,"ECCENTRICITY":8.791e-5,"INCLINATION":97.6037,"RA_OF_ASC_NODE":318.7569,"ARG_OF_PERICENTER":112.3656,"MEAN_ANOMALY":247.7661,"EPHEMERIS_TYPE":0,"CLASSIFICATION_TYPE":"U","NORAD_CAT_ID":53661,"ELEMENT_SET_NO":999,"REV_AT_EPOCH":19454,"BSTAR":4.6925618e-5,"MEAN_MOTION_DOT":5.45e-6,"MEAN_MOTION_DDOT":0},{"OBJECT_NAME":"STARLINK-4357","OBJECT_ID":"2022-105Q","EPOCH":"2026-03-18T21:46:18.744096","MEAN_MOTION":15.05649932,"ECCENTRICITY":0.0002862,"INCLINATION":97.6025,"RA_OF_ASC_NODE":320.2322,"ARG_OF_PERICENTER":80.8362,"MEAN_ANOMALY":279.3188,"EPHEMERIS_TYPE":0,"CLASSIFICATION_TYPE":"U","NORAD_CAT_ID":53662,"ELEMENT_SET_NO":999,"REV_AT_EPOCH":19468,"BSTAR":-1.8773e-6,"MEAN_MOTION_DOT":-8.8e-7,"MEAN_MOTION_DDOT":0},{"OBJECT_NAME":"STARLINK-4457","OBJECT_ID":"2022-105R","EPOCH":"2026-03-18T14:23:42.699264","MEAN_MOTION":15.05648341,"ECCENTRICITY":0.0002279,"INCLINATION":97.6032,"RA_OF_ASC_NODE":320.0447,"ARG_OF_PERICENTER":87.4578,"MEAN_ANOMALY":272.6909,"EPHEMERIS_TYPE":0,"CLASSIFICATION_TYPE":"U","NORAD_CAT_ID":53663,"ELEMENT_SET_NO":999,"REV_AT_EPOCH":19464,"BSTAR":3.0244e-6,"MEAN_MOTION_DOT":-1.7e-7,"MEAN_MOTION_DDOT":0},{"OBJECT_NAME":"STARLINK-4471","OBJECT_ID":"2022-105S","EPOCH":"2026-03-18T15:07:35.208768","MEAN_MOTION":15.05653476,"ECCENTRICITY":0.0001957,"INCLINATION":97.6032,"RA_OF_ASC_NODE":319.9877,"ARG_OF_PERICENTER":79.4712,"MEAN_ANOMALY":280.6735,"EPHEMERIS_TYPE":0,"CLASSIFICATION_TYPE":"U","NORAD_CAT_ID":53664,"ELEMENT_SET_NO":999,"REV_AT_EPOCH":19464,"BSTAR":0.00015491,"MEAN_MOTION_DOT":2.175e-5,"MEAN_MOTION_DDOT":0},{"OBJECT_NAME":"STARLINK-4334","OBJECT_ID":"2022-105T","EPOCH":"2026-03-18T20:00:01.999008","MEAN_MOTION":15.08225318,"ECCENTRICITY":0.0002797,"INCLINATION":97.6047,"RA_OF_ASC_NODE":320.2777,"ARG_OF_PERICENTER":80.1141,"MEAN_ANOMALY":143.941,"EPHEMERIS_TYPE":0,"CLASSIFICATION_TYPE":"U","NORAD_CAT_ID":53665,"ELEMENT_SET_NO":999,"REV_AT_EPOCH":576,"BSTAR":-0.0022375,"MEAN_MOTION_DOT":-0.00034508,"MEAN_MOTION_DDOT":0},{"OBJECT_NAME":"STARLINK-4406","OBJECT_ID":"2022-105V","EPOCH":"2026-03-18T20:00:01.999008","MEAN_MOTION":15.1039289,"ECCENTRICITY":0.0001705,"INCLINATION":97.6022,"RA_OF_ASC_NODE":320.3374,"ARG_OF_PERICENTER":75.5862,"MEAN_ANOMALY":277.4474,"EPHEMERIS_TYPE":0,"CLASSIFICATION_TYPE":"U","NORAD_CAT_ID":53667,"ELEMENT_SET_NO":999,"REV_AT_EPOCH":581,"BSTAR":0.0063177,"MEAN_MOTION_DOT":0.0010515,"MEAN_MOTION_DDOT":0},{"OBJECT_NAME":"STARLINK-4458","OBJECT_ID":"2022-105W","EPOCH":"2026-03-18T20:00:01.999008","MEAN_MOTION":15.07942899,"ECCENTRICITY":0.0002391,"INCLINATION":97.6006,"RA_OF_ASC_NODE":320.1738,"ARG_OF_PERICENTER":88.2236,"MEAN_ANOMALY":3.5125,"EPHEMERIS_TYPE":0,"CLASSIFICATION_TYPE":"U","NORAD_CAT_ID":53668,"ELEMENT_SET_NO":999,"REV_AT_EPOCH":582,"BSTAR":-0.0022585,"MEAN_MOTION_DOT":-0.00034563,"MEAN_MOTION_DDOT":0},{"OBJECT_NAME":"STARLINK-4464","OBJECT_ID":"2022-105X","EPOCH":"2026-03-18T20:00:01.999008","MEAN_MOTION":15.04315996,"ECCENTRICITY":0.0002979,"INCLINATION":97.6058,"RA_OF_ASC_NODE":319.1606,"ARG_OF_PERICENTER":63.5697,"MEAN_ANOMALY":50.3692,"EPHEMERIS_TYPE":0,"CLASSIFICATION_TYPE":"U","NORAD_CAT_ID":53669,"ELEMENT_SET_NO":999,"REV_AT_EPOCH":575,"BSTAR":-0.0018098,"MEAN_MOTION_DOT":-0.00025172,"MEAN_MOTION_DDOT":0},{"OBJECT_NAME":"STARLINK-4459","OBJECT_ID":"2022-105Y","EPOCH":"2026-03-18T09:20:40.143264","MEAN_MOTION":15.05650134,"ECCENTRICITY":0.0002399,"INCLINATION":97.6037,"RA_OF_ASC_NODE":319.8288,"ARG_OF_PERICENTER":76.7139,"MEAN_ANOMALY":283.4355,"EPHEMERIS_TYPE":0,"CLASSIFICATION_TYPE":"U","NORAD_CAT_ID":53670,"ELEMENT_SET_NO":999,"REV_AT_EPOCH":19461,"BSTAR":-1.9302294e-5,"MEAN_MOTION_DOT":-3.39e-6,"MEAN_MOTION_DDOT":0},{"OBJECT_NAME":"STARLINK-4440","OBJECT_ID":"2022-105Z","EPOCH":"2026-03-18T09:47:44.700000","MEAN_MOTION":15.01263201,"ECCENTRICITY":0.00030974,"INCLINATION":97.6027,"RA_OF_ASC_NODE":318.754,"ARG_OF_PERICENTER":64.3947,"MEAN_ANOMALY":295.7597,"EPHEMERIS_TYPE":0,"CLASSIFICATION_TYPE":"U","NORAD_CAT_ID":53671,"ELEMENT_SET_NO":999,"REV_AT_EPOCH":19454,"BSTAR":4.4229265e-5,"MEAN_MOTION_DOT":5.1e-6,"MEAN_MOTION_DDOT":0},{"OBJECT_NAME":"STARLINK-4428","OBJECT_ID":"2022-105AA","EPOCH":"2026-03-18T15:52:39.081216","MEAN_MOTION":15.01260623,"ECCENTRICITY":0.0002854,"INCLINATION":97.6014,"RA_OF_ASC_NODE":319.0107,"ARG_OF_PERICENTER":58.2433,"MEAN_ANOMALY":301.9069,"EPHEMERIS_TYPE":0,"CLASSIFICATION_TYPE":"U","NORAD_CAT_ID":53672,"ELEMENT_SET_NO":999,"REV_AT_EPOCH":19458,"BSTAR":-1.5791e-6,"MEAN_MOTION_DOT":-7.9e-7,"MEAN_MOTION_DDOT":0},{"OBJECT_NAME":"STARLINK-4456","OBJECT_ID":"2022-105AB","EPOCH":"2026-03-18T10:12:29.445984","MEAN_MOTION":15.05652719,"ECCENTRICITY":0.00019217,"INCLINATION":97.6029,"RA_OF_ASC_NODE":319.8377,"ARG_OF_PERICENTER":86.9719,"MEAN_ANOMALY":273.1728,"EPHEMERIS_TYPE":0,"CLASSIFICATION_TYPE":"U","NORAD_CAT_ID":53673,"ELEMENT_SET_NO":999,"REV_AT_EPOCH":19461,"BSTAR":0.00010744333,"MEAN_MOTION_DOT":1.49e-5,"MEAN_MOTION_DDOT":0},{"OBJECT_NAME":"STARLINK-4620","OBJECT_ID":"2022-105AC","EPOCH":"2026-03-18T14:27:19.960704","MEAN_MOTION":15.01262087,"ECCENTRICITY":0.0003945,"INCLINATION":97.601,"RA_OF_ASC_NODE":318.9369,"ARG_OF_PERICENTER":38.261,"MEAN_ANOMALY":321.8894,"EPHEMERIS_TYPE":0,"CLASSIFICATION_TYPE":"U","NORAD_CAT_ID":53674,"ELEMENT_SET_NO":999,"REV_AT_EPOCH":19457,"BSTAR":-3.3461e-6,"MEAN_MOTION_DOT":-1.01e-6,"MEAN_MOTION_DDOT":0},{"OBJECT_NAME":"STARLINK-4617","OBJECT_ID":"2022-105AD","EPOCH":"2026-03-18T02:29:57.144768","MEAN_MOTION":15.05647776,"ECCENTRICITY":0.0001898,"INCLINATION":97.6028,"RA_OF_ASC_NODE":319.576,"ARG_OF_PERICENTER":82.3165,"MEAN_ANOMALY":277.8278,"EPHEMERIS_TYPE":0,"CLASSIFICATION_TYPE":"U","NORAD_CAT_ID":53675,"ELEMENT_SET_NO":999,"REV_AT_EPOCH":19457,"BSTAR":2.1450411e-5,"MEAN_MOTION_DOT":2.49e-6,"MEAN_MOTION_DDOT":0},{"OBJECT_NAME":"STARLINK-4621","OBJECT_ID":"2022-105AE","EPOCH":"2026-03-18T20:00:01.999008","MEAN_MOTION":15.03998402,"ECCENTRICITY":0.0002964,"INCLINATION":97.602,"RA_OF_ASC_NODE":319.1571,"ARG_OF_PERICENTER":102.49,"MEAN_ANOMALY":97.0841,"EPHEMERIS_TYPE":0,"CLASSIFICATION_TYPE":"U","NORAD_CAT_ID":53676,"ELEMENT_SET_NO":999,"REV_AT_EPOCH":555,"BSTAR":-0.0022432,"MEAN_MOTION_DOT":-0.000309,"MEAN_MOTION_DDOT":0},{"OBJECT_NAME":"STARLINK-4579","OBJECT_ID":"2022-105AF","EPOCH":"2026-03-18T15:51:26.237376","MEAN_MOTION":15.05645542,"ECCENTRICITY":0.0002322,"INCLINATION":97.6036,"RA_OF_ASC_NODE":320.0753,"ARG_OF_PERICENTER":86.6552,"MEAN_ANOMALY":273.4941,"EPHEMERIS_TYPE":0,"CLASSIFICATION_TYPE":"U","NORAD_CAT_ID":53677,"ELEMENT_SET_NO":999,"REV_AT_EPOCH":19465,"BSTAR":-3.5467e-5,"MEAN_MOTION_DOT":-5.73e-6,"MEAN_MOTION_DDOT":0},{"OBJECT_NAME":"STARLINK-4632","OBJECT_ID":"2022-105AH","EPOCH":"2026-03-18T15:03:35.588736","MEAN_MOTION":15.05648882,"ECCENTRICITY":0.0002738,"INCLINATION":97.6017,"RA_OF_ASC_NODE":320.1102,"ARG_OF_PERICENTER":79.7747,"MEAN_ANOMALY":280.3789,"EPHEMERIS_TYPE":0,"CLASSIFICATION_TYPE":"U","NORAD_CAT_ID":53679,"ELEMENT_SET_NO":999,"REV_AT_EPOCH":19465,"BSTAR":3.0272e-5,"MEAN_MOTION_DOT":3.76e-6,"MEAN_MOTION_DDOT":0},{"OBJECT_NAME":"STARLINK-4630","OBJECT_ID":"2022-105AJ","EPOCH":"2026-03-18T17:23:08.618784","MEAN_MOTION":15.05643526,"ECCENTRICITY":0.0002336,"INCLINATION":97.6034,"RA_OF_ASC_NODE":320.1191,"ARG_OF_PERICENTER":87.3889,"MEAN_ANOMALY":272.7605,"EPHEMERIS_TYPE":0,"CLASSIFICATION_TYPE":"U","NORAD_CAT_ID":53680,"ELEMENT_SET_NO":999,"REV_AT_EPOCH":19466,"BSTAR":6.2535e-5,"MEAN_MOTION_DOT":8.41e-6,"MEAN_MOTION_DDOT":0}]
